[{"OBJECT_NAME":"STARLINK-31645","OBJECT_ID":"2024-050L","EPOCH":"2026-03-09T14:28:30.861408","MEAN_MOTION":15.30190773,"ECCENTRICITY":0.0001194,"INCLINATION":53.1575,"RA_OF_ASC_NODE":181.5135,"ARG_OF_PERICENTER":83.414,"MEAN_ANOMALY":276.6997,"EPHEMERIS_TYPE":0,"CLASSIFICATION_TYPE":"U","NORAD_CAT_ID":59264,"ELEMENT_SET_NO":999,"REV_AT_EPOCH":11053,"BSTAR":0.00081612,"MEAN_MOTION_DOT":0.00023883,"MEAN_MOTION_DDOT":0},{"OBJECT_NAME":"TITAN 4B R\/B","OBJECT_ID":"2005-016B","EPOCH":"2026-03-09T20:27:57.848832","MEAN_MOTION":15.42682045,"ECCENTRICITY":0.00616552,"INCLINATION":56.9964,"RA_OF_ASC_NODE":245.9411,"ARG_OF_PERICENTER":20.2929,"MEAN_ANOMALY":340.0555,"EPHEMERIS_TYPE":0,"CLASSIFICATION_TYPE":"U","NORAD_CAT_ID":28647,"ELEMENT_SET_NO":999,"REV_AT_EPOCH":37707,"BSTAR":0.00046483736,"MEAN_MOTION_DOT":0.0002164,"MEAN_MOTION_DDOT":0}]
